{
"type": "FeatureCollection",
"name": "oaxaca_regiones",
"crs": { "type": "name", "properties": { "name": "urn:ogc:def:crs:OGC:1.3:CRS84" } },
"features": [
{ "type": "Feature", "properties": { "region": "Cañada", "n_municipios": 45 }, "geometry": { "type": "Polygon", "coordinates": [ [ [ -97.0443, 17.6546 ], [ -97.056, 17.6716 ], [ -97.0799, 17.6858 ], [ -97.0878, 17.6783 ], [ -97.1011, 17.6948 ], [ -97.1147, 17.779 ], [ -97.1362, 17.7895 ], [ -97.1362, 17.7998 ], [ -97.1588, 17.8032 ], [ -97.1952, 17.7843 ], [ -97.1987, 17.7966 ], [ -97.2461, 17.8154 ], [ -97.2454, 17.9153 ], [ -97.1941, 17.9749 ], [ -97.1923, 18.0353 ], [ -97.2134, 18.1066 ], [ -97.2143, 18.1637 ], [ -97.1872, 18.1752 ], [ -97.1924, 18.1924 ], [ -97.1674, 18.2009 ], [ -97.144, 18.1634 ], [ -97.1405, 18.1733 ], [ -97.1338, 18.1741 ], [ -97.1386, 18.1671 ], [ -97.1339, 18.1577 ], [ -97.1239, 18.1625 ], [ -97.1138, 18.1495 ], [ -97.0421, 18.1566 ], [ -97.0402, 18.1748 ], [ -96.9915, 18.2307 ], [ -96.9741, 18.2324 ], [ -96.9368, 18.216 ], [ -96.9219, 18.2406 ], [ -96.9162, 18.2306 ], [ -96.9131, 18.2385 ], [ -96.8968, 18.2377 ], [ -96.8853, 18.244 ], [ -96.8548, 18.2412 ], [ -96.8417, 18.2565 ], [ -96.8387, 18.2677 ], [ -96.8432, 18.2711 ], [ -96.8373, 18.2719 ], [ -96.8257, 18.2964 ], [ -96.8176, 18.3008 ], [ -96.8214, 18.3213 ], [ -96.7842, 18.3383 ], [ -96.786, 18.3535 ], [ -96.7804, 18.3635 ], [ -96.7635, 18.375 ], [ -96.7628, 18.3832 ], [ -96.7498, 18.3816 ], [ -96.7546, 18.3922 ], [ -96.7306, 18.398 ], [ -96.7415, 18.3839 ], [ -96.7331, 18.3741 ], [ -96.6977, 18.3821 ], [ -96.7016, 18.3526 ], [ -96.6803, 18.3474 ], [ -96.6732, 18.3569 ], [ -96.6694, 18.35 ], [ -96.66, 18.3488 ], [ -96.6661, 18.3414 ], [ -96.6558, 18.3349 ], [ -96.6552, 18.3434 ], [ -96.6436, 18.3395 ], [ -96.6523, 18.338 ], [ -96.6461, 18.3365 ], [ -96.6495, 18.3302 ], [ -96.654, 18.3325 ], [ -96.654, 18.3274 ], [ -96.6451, 18.3305 ], [ -96.6466, 18.3344 ], [ -96.6461, 18.3362 ], [ -96.6431, 18.3374 ], [ -96.6449, 18.3363 ], [ -96.6452, 18.3339 ], [ -96.6441, 18.3353 ], [ -96.6354, 18.3328 ], [ -96.6375, 18.3293 ], [ -96.639, 18.3335 ], [ -96.6422, 18.3331 ], [ -96.6384, 18.3295 ], [ -96.6462, 18.3257 ], [ -96.6416, 18.3194 ], [ -96.6361, 18.3285 ], [ -96.6269, 18.3293 ], [ -96.6274, 18.3123 ], [ -96.6131, 18.3132 ], [ -96.5947, 18.3029 ], [ -96.6038, 18.2938 ], [ -96.6002, 18.2849 ], [ -96.6121, 18.2738 ], [ -96.6247, 18.2778 ], [ -96.631, 18.3001 ], [ -96.6541, 18.2832 ], [ -96.6805, 18.2886 ], [ -96.69, 18.2781 ], [ -96.679, 18.2467 ], [ -96.6673, 18.2432 ], [ -96.661, 18.2292 ], [ -96.6343, 18.2199 ], [ -96.6337, 18.211 ], [ -96.6258, 18.2103 ], [ -96.6237, 18.2198 ], [ -96.6133, 18.2088 ], [ -96.6163, 18.2024 ], [ -96.6238, 18.204 ], [ -96.6207, 18.1935 ], [ -96.6251, 18.1925 ], [ -96.5969, 18.1804 ], [ -96.5821, 18.1676 ], [ -96.5975, 18.1642 ], [ -96.5794, 18.1402 ], [ -96.5958, 18.1259 ], [ -96.5954, 18.1177 ], [ -96.5835, 18.1087 ], [ -96.5575, 18.113 ], [ -96.5768, 18.0817 ], [ -96.592, 18.0831 ], [ -96.6037, 18.0702 ], [ -96.6215, 18.0753 ], [ -96.6286, 18.064 ], [ -96.6394, 18.0649 ], [ -96.648, 18.054 ], [ -96.6325, 18.0509 ], [ -96.6233, 18.0412 ], [ -96.6133, 18.0449 ], [ -96.6088, 18.0316 ], [ -96.602, 18.0287 ], [ -96.5492, 18.0382 ], [ -96.5246, 18.0226 ], [ -96.5106, 18.0254 ], [ -96.4889, 18.0141 ], [ -96.49, 17.9979 ], [ -96.5112, 17.9519 ], [ -96.5193, 17.9429 ], [ -96.5566, 17.9441 ], [ -96.5654, 17.9233 ], [ -96.5612, 17.8931 ], [ -96.5468, 17.8696 ], [ -96.578, 17.8356 ], [ -96.5626, 17.8058 ], [ -96.5624, 17.7943 ], [ -96.5829, 17.7713 ], [ -96.595, 17.7671 ], [ -96.6027, 17.7331 ], [ -96.6158, 17.7402 ], [ -96.6164, 17.7534 ], [ -96.6342, 17.7745 ], [ -96.6371, 17.7648 ], [ -96.6623, 17.756 ], [ -96.6487, 17.7729 ], [ -96.6718, 17.7883 ], [ -96.6797, 17.7547 ], [ -96.6882, 17.7491 ], [ -96.6717, 17.7468 ], [ -96.6831, 17.7379 ], [ -96.6857, 17.7272 ], [ -96.6603, 17.7136 ], [ -96.656, 17.7189 ], [ -96.6332, 17.7156 ], [ -96.6425, 17.7013 ], [ -96.6563, 17.6958 ], [ -96.6722, 17.7088 ], [ -96.694, 17.7073 ], [ -96.6966, 17.6784 ], [ -96.7044, 17.6654 ], [ -96.7183, 17.6814 ], [ -96.7311, 17.6774 ], [ -96.7515, 17.6917 ], [ -96.7596, 17.6833 ], [ -96.767, 17.6864 ], [ -96.7715, 17.6759 ], [ -96.7761, 17.682 ], [ -96.8032, 17.6802 ], [ -96.8121, 17.6736 ], [ -96.8075, 17.6675 ], [ -96.8156, 17.6631 ], [ -96.8207, 17.6737 ], [ -96.8285, 17.6675 ], [ -96.8362, 17.6779 ], [ -96.8548, 17.6737 ], [ -96.8677, 17.6588 ], [ -96.8806, 17.6221 ], [ -96.8666, 17.5282 ], [ -96.8537, 17.518 ], [ -96.8387, 17.515 ], [ -96.8299, 17.504 ], [ -96.7996, 17.4989 ], [ -96.7959, 17.4895 ], [ -96.8239, 17.491 ], [ -96.8295, 17.4812 ], [ -96.8531, 17.477 ], [ -96.8725, 17.4471 ], [ -96.9302, 17.4131 ], [ -96.9332, 17.4313 ], [ -96.9281, 17.4489 ], [ -96.9453, 17.4846 ], [ -96.9585, 17.5457 ], [ -96.9808, 17.5457 ], [ -96.9777, 17.5509 ], [ -96.9874, 17.556 ], [ -96.9933, 17.546 ], [ -97.0116, 17.5516 ], [ -97.0164, 17.5408 ], [ -96.9936, 17.5224 ], [ -96.9954, 17.5064 ], [ -97.0217, 17.5151 ], [ -97.0414, 17.5348 ], [ -97.0348, 17.5556 ], [ -97.04, 17.558 ], [ -97.036, 17.5683 ], [ -97.0443, 17.6546 ] ] ] } },
{ "type": "Feature", "properties": { "region": "Costa", "n_municipios": 50 }, "geometry": { "type": "MultiPolygon", "coordinates": [ [ [ [ -97.7885, 15.9824 ], [ -97.97, 16.1056 ], [ -98.1054, 16.1784 ], [ -98.1862, 16.2122 ], [ -98.2067, 16.2296 ], [ -98.2921, 16.2521 ], [ -98.4221, 16.2703 ], [ -98.5526, 16.316 ], [ -98.5422, 16.3327 ], [ -98.5429, 16.3431 ], [ -98.5334, 16.3516 ], [ -98.5207, 16.3601 ], [ -98.4855, 16.3688 ], [ -98.4709, 16.3812 ], [ -98.456, 16.3804 ], [ -98.4542, 16.3858 ], [ -98.3992, 16.3805 ], [ -98.3499, 16.4444 ], [ -98.3599, 16.4717 ], [ -98.3525, 16.4894 ], [ -98.3688, 16.4912 ], [ -98.3683, 16.5009 ], [ -98.3873, 16.4978 ], [ -98.3833, 16.5127 ], [ -98.3925, 16.5274 ], [ -98.3951, 16.5468 ], [ -98.3837, 16.5452 ], [ -98.3761, 16.5523 ], [ -98.3403, 16.5582 ], [ -98.33, 16.5727 ], [ -98.2917, 16.5701 ], [ -98.2928, 16.5578 ], [ -98.2694, 16.5585 ], [ -98.2415, 16.5678 ], [ -98.2293, 16.5809 ], [ -98.2034, 16.5872 ], [ -98.1938, 16.6215 ], [ -98.2142, 16.6188 ], [ -98.2285, 16.6395 ], [ -98.2331, 16.6706 ], [ -98.2463, 16.6724 ], [ -98.2434, 16.6967 ], [ -98.2335, 16.7174 ], [ -98.2213, 16.7085 ], [ -98.2015, 16.7127 ], [ -98.2055, 16.698 ], [ -98.2003, 16.6972 ], [ -98.1921, 16.7064 ], [ -98.1844, 16.7051 ], [ -98.1752, 16.718 ], [ -98.1537, 16.7253 ], [ -98.139, 16.7238 ], [ -98.1257, 16.7391 ], [ -98.1242, 16.7496 ], [ -98.1339, 16.7509 ], [ -98.1354, 16.7574 ], [ -98.1085, 16.7416 ], [ -98.1311, 16.6794 ], [ -98.1515, 16.6746 ], [ -98.1548, 16.6564 ], [ -98.1448, 16.6494 ], [ -98.1435, 16.6412 ], [ -98.1262, 16.6432 ], [ -98.0938, 16.6247 ], [ -98.0759, 16.6235 ], [ -98.0663, 16.6129 ], [ -98.0733, 16.6093 ], [ -98.0662, 16.6025 ], [ -98.0736, 16.5962 ], [ -98.0703, 16.5932 ], [ -98.0946, 16.5879 ], [ -98.084, 16.5668 ], [ -97.9905, 16.5686 ], [ -97.9796, 16.5739 ], [ -97.9748, 16.5704 ], [ -97.9796, 16.56 ], [ -97.9726, 16.5566 ], [ -97.9775, 16.5522 ], [ -97.9697, 16.5469 ], [ -97.9594, 16.552 ], [ -97.9543, 16.5697 ], [ -97.9347, 16.5646 ], [ -97.8693, 16.5771 ], [ -97.8594, 16.5657 ], [ -97.8396, 16.578 ], [ -97.8419, 16.5933 ], [ -97.8269, 16.5968 ], [ -97.8043, 16.5885 ], [ -97.7984, 16.6007 ], [ -97.779, 16.5931 ], [ -97.7938, 16.6216 ], [ -97.7664, 16.625 ], [ -97.7447, 16.6237 ], [ -97.7227, 16.6141 ], [ -97.703, 16.6222 ], [ -97.6599, 16.6175 ], [ -97.6333, 16.6064 ], [ -97.6254, 16.6091 ], [ -97.6195, 16.6008 ], [ -97.6224, 16.5866 ], [ -97.5879, 16.584 ], [ -97.5704, 16.5705 ], [ -97.5698, 16.5562 ], [ -97.5469, 16.516 ], [ -97.5655, 16.503 ], [ -97.5394, 16.504 ], [ -97.5406, 16.4803 ], [ -97.5535, 16.4779 ], [ -97.5652, 16.4591 ], [ -97.5725, 16.4677 ], [ -97.5874, 16.4596 ], [ -97.594, 16.4478 ], [ -97.6094, 16.4356 ], [ -97.6173, 16.4389 ], [ -97.6191, 16.433 ], [ -97.6121, 16.4233 ], [ -97.6043, 16.4265 ], [ -97.5934, 16.4189 ], [ -97.6104, 16.413 ], [ -97.61, 16.3914 ], [ -97.5894, 16.3844 ], [ -97.5519, 16.3595 ], [ -97.4823, 16.362 ], [ -97.445, 16.339 ], [ -97.4334, 16.3556 ], [ -97.4362, 16.3733 ], [ -97.4317, 16.3793 ], [ -97.3945, 16.3974 ], [ -97.3791, 16.4426 ], [ -97.3607, 16.4187 ], [ -97.3453, 16.417 ], [ -97.3337, 16.423 ], [ -97.3307, 16.4156 ], [ -97.3224, 16.4167 ], [ -97.3281, 16.3983 ], [ -97.3235, 16.3956 ], [ -97.3115, 16.402 ], [ -97.3102, 16.3973 ], [ -97.3197, 16.3859 ], [ -97.3107, 16.3861 ], [ -97.3059, 16.3943 ], [ -97.3016, 16.389 ], [ -97.296, 16.3918 ], [ -97.2909, 16.3832 ], [ -97.2845, 16.3887 ], [ -97.2585, 16.3699 ], [ -97.2521, 16.3776 ], [ -97.2414, 16.3701 ], [ -97.2339, 16.3742 ], [ -97.2228, 16.3712 ], [ -97.2135, 16.361 ], [ -97.2037, 16.3642 ], [ -97.1873, 16.3562 ], [ -97.1895, 16.3469 ], [ -97.1741, 16.3537 ], [ -97.1651, 16.3512 ], [ -97.1658, 16.362 ], [ -97.1552, 16.3523 ], [ -97.1381, 16.3507 ], [ -97.1335, 16.3558 ], [ -97.129, 16.3513 ], [ -97.1257, 16.3582 ], [ -97.1203, 16.352 ], [ -97.105, 16.3651 ], [ -97.0973, 16.3474 ], [ -97.0869, 16.347 ], [ -97.0782, 16.3658 ], [ -97.0702, 16.3186 ], [ -97.0825, 16.3096 ], [ -97.0817, 16.2938 ], [ -97.0904, 16.2905 ], [ -97.0853, 16.2851 ], [ -97.0887, 16.2777 ], [ -97.081, 16.2765 ], [ -97.0878, 16.2672 ], [ -97.0776, 16.2712 ], [ -97.062, 16.2453 ], [ -97.0271, 16.2324 ], [ -97.019, 16.2161 ], [ -97.0215, 16.201 ], [ -97.0149, 16.192 ], [ -97.0175, 16.1879 ], [ -97.0216, 16.1934 ], [ -97.0318, 16.19 ], [ -97.0287, 16.2126 ], [ -97.0589, 16.2084 ], [ -97.0646, 16.202 ], [ -97.0563, 16.1364 ], [ -97.065, 16.1398 ], [ -97.034, 16.1184 ], [ -97.0304, 16.0859 ], [ -97.0213, 16.0738 ], [ -97.0311, 16.0651 ], [ -97.0184, 16.0631 ], [ -97.0237, 16.0449 ], [ -97.0145, 16.0483 ], [ -97.0033, 16.0359 ], [ -96.9539, 16.0204 ], [ -96.9557, 16.0298 ], [ -96.9087, 16.0129 ], [ -96.8949, 15.9687 ], [ -96.8288, 15.9609 ], [ -96.8317, 15.9668 ], [ -96.8265, 15.9765 ], [ -96.8373, 15.9888 ], [ -96.8344, 16.0008 ], [ -96.8442, 16.0009 ], [ -96.8375, 16.0069 ], [ -96.8469, 16.0109 ], [ -96.8421, 16.0267 ], [ -96.8352, 16.0263 ], [ -96.8321, 16.0375 ], [ -96.8155, 16.0555 ], [ -96.8288, 16.0593 ], [ -96.8368, 16.0755 ], [ -96.8304, 16.0851 ], [ -96.8323, 16.0944 ], [ -96.825, 16.0943 ], [ -96.821, 16.1012 ], [ -96.8162, 16.0986 ], [ -96.8158, 16.1039 ], [ -96.8005, 16.0987 ], [ -96.7922, 16.1023 ], [ -96.7816, 16.1221 ], [ -96.7336, 16.1405 ], [ -96.6503, 16.0858 ], [ -96.6216, 16.094 ], [ -96.5773, 16.0818 ], [ -96.5643, 16.0701 ], [ -96.5734, 16.0633 ], [ -96.5694, 16.0591 ], [ -96.5417, 16.0473 ], [ -96.5399, 16.0396 ], [ -96.5492, 16.0339 ], [ -96.5515, 16.0243 ], [ -96.5397, 16.0133 ], [ -96.5205, 16.0159 ], [ -96.5245, 16.0256 ], [ -96.5191, 16.0244 ], [ -96.5199, 16.0358 ], [ -96.5037, 16.0503 ], [ -96.5027, 16.0635 ], [ -96.5005, 16.0579 ], [ -96.4922, 16.0646 ], [ -96.4894, 16.0705 ], [ -96.4947, 16.0779 ], [ -96.4895, 16.0798 ], [ -96.4794, 16.0706 ], [ -96.4816, 16.0637 ], [ -96.4718, 16.0507 ], [ -96.4508, 16.0427 ], [ -96.4438, 16.0301 ], [ -96.4329, 16.0385 ], [ -96.4167, 16.0318 ], [ -96.4244, 16.0185 ], [ -96.4298, 16.0201 ], [ -96.4271, 16.0157 ], [ -96.4382, 15.998 ], [ -96.4298, 15.9819 ], [ -96.4239, 15.982 ], [ -96.4242, 15.971 ], [ -96.4156, 15.968 ], [ -96.4179, 15.9643 ], [ -96.4114, 15.9663 ], [ -96.4062, 15.9907 ], [ -96.3923, 15.9993 ], [ -96.4022, 16.0086 ], [ -96.3867, 16.0204 ], [ -96.3923, 16.0319 ], [ -96.3802, 16.0456 ], [ -96.3674, 16.0433 ], [ -96.3506, 16.0264 ], [ -96.3335, 16.0247 ], [ -96.2921, 16.035 ], [ -96.2846, 16.0205 ], [ -96.294, 16.0217 ], [ -96.2974, 16.0116 ], [ -96.3108, 16.0092 ], [ -96.2899, 15.9943 ], [ -96.2758, 15.9933 ], [ -96.2737, 15.9851 ], [ -96.2808, 15.9705 ], [ -96.2639, 15.9701 ], [ -96.2651, 15.9633 ], [ -96.2549, 15.9615 ], [ -96.253, 15.9525 ], [ -96.2478, 15.9574 ], [ -96.2448, 15.9534 ], [ -96.2455, 15.9638 ], [ -96.2419, 15.9591 ], [ -96.2407, 15.964 ], [ -96.2279, 15.9646 ], [ -96.2146, 15.9559 ], [ -96.2149, 15.9486 ], [ -96.2067, 15.9494 ], [ -96.1948, 15.9617 ], [ -96.1951, 15.9686 ], [ -96.2049, 15.9755 ], [ -96.1483, 15.9598 ], [ -96.1372, 15.9876 ], [ -96.1229, 15.9857 ], [ -96.1173, 15.997 ], [ -96.1259, 16.0102 ], [ -96.1179, 16.0065 ], [ -96.1324, 16.0304 ], [ -96.1407, 16.0273 ], [ -96.172, 16.0392 ], [ -96.1697, 16.0437 ], [ -96.1423, 16.0457 ], [ -96.1371, 16.0379 ], [ -96.142, 16.0505 ], [ -96.1318, 16.0756 ], [ -96.1339, 16.0958 ], [ -96.1194, 16.1142 ], [ -96.0879, 16.0925 ], [ -96.0874, 16.0979 ], [ -96.0509, 16.0917 ], [ -96.0204, 16.076 ], [ -96.0241, 16.0651 ], [ -95.9959, 16.0334 ], [ -96.0314, 16.0474 ], [ -96.0456, 16.0368 ], [ -96.0614, 16.0382 ], [ -96.0564, 16.0055 ], [ -96.0511, 15.9938 ], [ -96.034, 16.0048 ], [ -96.0101, 16.0035 ], [ -96.0019, 16.0256 ], [ -95.9979, 15.9658 ], [ -95.9878, 15.9541 ], [ -95.9942, 15.9542 ], [ -95.9672, 15.9375 ], [ -96.0095, 15.8994 ], [ -96.0148, 15.8701 ], [ -96.0034, 15.8081 ], [ -96.031, 15.792 ], [ -96.0534, 15.7873 ], [ -96.063, 15.777 ], [ -96.066, 15.781 ], [ -96.0722, 15.778 ], [ -96.0749, 15.7667 ], [ -96.0943, 15.7737 ], [ -96.0994, 15.7698 ], [ -96.0993, 15.7584 ], [ -96.1214, 15.7607 ], [ -96.1236, 15.7497 ], [ -96.1315, 15.7526 ], [ -96.1242, 15.7419 ], [ -96.1279, 15.7376 ], [ -96.1456, 15.7378 ], [ -96.1521, 15.7311 ], [ -96.1442, 15.7277 ], [ -96.1661, 15.7232 ], [ -96.1729, 15.7137 ], [ -96.178, 15.7166 ], [ -96.1929, 15.7054 ], [ -96.2038, 15.712 ], [ -96.2052, 15.7016 ], [ -96.2256, 15.6979 ], [ -96.2244, 15.6917 ], [ -96.235, 15.6918 ], [ -96.2371, 15.6827 ], [ -96.3398, 15.6849 ], [ -96.3513, 15.6903 ], [ -96.3614, 15.6823 ], [ -96.4262, 15.6964 ], [ -96.4526, 15.6815 ], [ -96.4646, 15.6832 ], [ -96.482, 15.6633 ], [ -96.495, 15.6657 ], [ -96.4946, 15.6584 ], [ -96.551, 15.6653 ], [ -96.5553, 15.6632 ], [ -96.5545, 15.6584 ], [ -96.5568, 15.6572 ], [ -96.6989, 15.7162 ], [ -96.8604, 15.7398 ], [ -96.9339, 15.7826 ], [ -97.0187, 15.8069 ], [ -97.0486, 15.8282 ], [ -97.0463, 15.8358 ], [ -97.0619, 15.8603 ], [ -97.0703, 15.8558 ], [ -97.0837, 15.8592 ], [ -97.1421, 15.897 ], [ -97.2078, 15.9221 ], [ -97.273, 15.9385 ], [ -97.3346, 15.946 ], [ -97.3593, 15.9444 ], [ -97.3682, 15.9368 ], [ -97.4214, 15.9418 ], [ -97.5297, 15.9694 ], [ -97.5653, 15.9633 ], [ -97.6558, 15.9778 ], [ -97.6722, 15.9733 ], [ -97.6797, 15.9623 ], [ -97.7705, 15.977 ], [ -97.7885, 15.9824 ] ] ], [ [ [ -97.3513, 15.9377 ], [ -97.3525, 15.9364 ], [ -97.353, 15.9376 ], [ -97.3513, 15.9377 ] ] ], [ [ [ -96.2313, 15.6878 ], [ -96.2279, 15.6855 ], [ -96.2283, 15.6853 ], [ -96.2312, 15.687 ], [ -96.2313, 15.6878 ] ] ], [ [ [ -96.2233, 15.6908 ], [ -96.2226, 15.6898 ], [ -96.2236, 15.6902 ], [ -96.2233, 15.6908 ] ] ], [ [ [ -96.164, 15.7182 ], [ -96.1602, 15.7182 ], [ -96.1615, 15.7164 ], [ -96.164, 15.7182 ] ] ], [ [ [ -96.1189, 15.7479 ], [ -96.1186, 15.747 ], [ -96.1198, 15.7475 ], [ -96.1189, 15.7479 ] ] ], [ [ [ -96.117, 15.7478 ], [ -96.1175, 15.7482 ], [ -96.1169, 15.748 ], [ -96.117, 15.7478 ] ] ], [ [ [ -96.1159, 15.749 ], [ -96.116, 15.7486 ], [ -96.116, 15.749 ], [ -96.1159, 15.749 ] ] ], [ [ [ -96.1162, 15.7491 ], [ -96.1165, 15.7491 ], [ -96.1165, 15.7493 ], [ -96.1162, 15.7491 ] ] ], [ [ [ -96.0831, 15.7647 ], [ -96.0848, 15.7629 ], [ -96.0848, 15.7656 ], [ -96.0831, 15.7647 ] ] ], [ [ [ -96.0948, 15.7715 ], [ -96.0948, 15.7719 ], [ -96.0946, 15.7718 ], [ -96.0948, 15.7715 ] ] ] ] } },
{ "type": "Feature", "properties": { "region": "Istmo", "n_municipios": 54 }, "geometry": { "type": "MultiPolygon", "coordinates": [ [ [ [ -95.5761, 15.9419 ], [ -95.5743, 15.9404 ], [ -95.5769, 15.9414 ], [ -95.5761, 15.9419 ] ] ], [ [ [ -95.4977, 15.9658 ], [ -95.5685, 15.9578 ], [ -95.5844, 15.9445 ], [ -95.6056, 15.9425 ], [ -95.6135, 15.9308 ], [ -95.6453, 15.9234 ], [ -95.6625, 15.9124 ], [ -95.7657, 15.8964 ], [ -95.78, 15.8848 ], [ -95.7772, 15.8711 ], [ -95.8062, 15.8694 ], [ -95.8756, 15.8525 ], [ -95.8847, 15.8445 ], [ -95.9462, 15.8321 ], [ -95.9704, 15.817 ], [ -96.0034, 15.8081 ], [ -96.0148, 15.8701 ], [ -96.0095, 15.8994 ], [ -95.9672, 15.9375 ], [ -95.9942, 15.9542 ], [ -95.9878, 15.9541 ], [ -95.9979, 15.9658 ], [ -96.0019, 16.0256 ], [ -96.0101, 16.0035 ], [ -96.034, 16.0048 ], [ -96.0511, 15.9938 ], [ -96.0564, 16.0055 ], [ -96.0614, 16.0382 ], [ -96.0456, 16.0368 ], [ -96.0314, 16.0474 ], [ -95.9959, 16.0334 ], [ -96.0241, 16.0651 ], [ -96.0204, 16.076 ], [ -96.0509, 16.0917 ], [ -96.0874, 16.0979 ], [ -96.0879, 16.0925 ], [ -96.1138, 16.109 ], [ -96.1194, 16.1142 ], [ -96.1135, 16.1393 ], [ -96.0872, 16.1562 ], [ -96.1026, 16.1626 ], [ -96.1316, 16.2016 ], [ -96.1638, 16.2082 ], [ -96.1782, 16.2234 ], [ -96.1744, 16.2435 ], [ -96.1844, 16.2586 ], [ -96.2232, 16.2797 ], [ -96.2425, 16.275 ], [ -96.257, 16.2857 ], [ -96.2882, 16.2898 ], [ -96.3053, 16.314 ], [ -96.311, 16.3375 ], [ -96.305, 16.3759 ], [ -96.2928, 16.3954 ], [ -96.3101, 16.4295 ], [ -96.3101, 16.4457 ], [ -96.291, 16.4396 ], [ -96.2799, 16.536 ], [ -96.2432, 16.5304 ], [ -96.2558, 16.5519 ], [ -96.2441, 16.5857 ], [ -96.255, 16.5897 ], [ -96.262, 16.6008 ], [ -96.2019, 16.622 ], [ -96.1693, 16.5675 ], [ -96.1264, 16.5806 ], [ -96.0641, 16.6381 ], [ -96.0336, 16.6323 ], [ -96.0104, 16.6524 ], [ -95.9833, 16.6509 ], [ -95.9465, 16.6616 ], [ -95.9305, 16.6785 ], [ -95.9181, 16.7043 ], [ -95.9096, 16.7473 ], [ -95.9075, 16.7376 ], [ -95.8774, 16.7478 ], [ -95.8815, 16.7646 ], [ -95.8587, 16.7788 ], [ -95.8428, 16.7776 ], [ -95.8373, 16.7997 ], [ -95.7929, 16.8552 ], [ -95.7776, 16.8864 ], [ -95.717, 16.8896 ], [ -95.6944, 16.8729 ], [ -95.6584, 16.9076 ], [ -95.6494, 16.9455 ], [ -95.6407, 16.9446 ], [ -95.6068, 16.9707 ], [ -95.6053, 16.9785 ], [ -95.6483, 16.9815 ], [ -95.649, 16.9638 ], [ -95.6687, 16.9595 ], [ -95.6907, 16.9881 ], [ -95.6965, 17.0093 ], [ -95.6832, 17.0582 ], [ -95.6689, 17.0464 ], [ -95.6715, 17.0577 ], [ -95.6649, 17.0619 ], [ -95.6475, 17.1037 ], [ -95.633, 17.1584 ], [ -95.6015, 17.168 ], [ -95.6016, 17.2101 ], [ -95.5613, 17.2263 ], [ -95.5567, 17.2564 ], [ -95.5656, 17.2595 ], [ -95.5696, 17.2736 ], [ -95.5625, 17.2818 ], [ -95.5523, 17.2838 ], [ -95.5409, 17.2962 ], [ -95.5323, 17.292 ], [ -95.5422, 17.2861 ], [ -95.536, 17.2759 ], [ -95.5278, 17.2748 ], [ -95.5415, 17.2387 ], [ -95.5009, 17.2653 ], [ -95.4795, 17.2611 ], [ -95.4649, 17.2681 ], [ -95.4616, 17.264 ], [ -95.4426, 17.2677 ], [ -95.4389, 17.2561 ], [ -95.4356, 17.2622 ], [ -95.4234, 17.2607 ], [ -95.4176, 17.2699 ], [ -95.409, 17.2611 ], [ -95.4033, 17.2621 ], [ -95.4077, 17.2679 ], [ -95.3935, 17.2647 ], [ -95.3866, 17.278 ], [ -95.4067, 17.3023 ], [ -95.4097, 17.3514 ], [ -95.3767, 17.3496 ], [ -95.3677, 17.3588 ], [ -95.3522, 17.3542 ], [ -95.3298, 17.372 ], [ -95.3296, 17.3617 ], [ -95.3205, 17.3645 ], [ -95.3236, 17.3592 ], [ -95.3183, 17.3552 ], [ -95.3014, 17.3647 ], [ -95.2997, 17.3478 ], [ -95.295, 17.347 ], [ -95.2848, 17.3515 ], [ -95.2832, 17.3633 ], [ -95.2716, 17.368 ], [ -95.2672, 17.3625 ], [ -95.2607, 17.3723 ], [ -95.2598, 17.3455 ], [ -95.2367, 17.3463 ], [ -95.2279, 17.3532 ], [ -95.2183, 17.3419 ], [ -95.2166, 17.3796 ], [ -95.2057, 17.3757 ], [ -95.1977, 17.3795 ], [ -95.1868, 17.3722 ], [ -95.1825, 17.4232 ], [ -95.1527, 17.4276 ], [ -95.1526, 17.4113 ], [ -95.1389, 17.412 ], [ -95.1438, 17.4289 ], [ -95.1221, 17.432 ], [ -95.0766, 17.3729 ], [ -94.9712, 17.331 ], [ -94.9665, 17.3344 ], [ -94.951, 17.3156 ], [ -94.9272, 17.3251 ], [ -94.9115, 17.3143 ], [ -94.901, 17.3171 ], [ -94.8908, 17.3111 ], [ -94.889, 17.3001 ], [ -94.9148, 17.2926 ], [ -94.9131, 17.2862 ], [ -94.9013, 17.2875 ], [ -94.9097, 17.268 ], [ -94.8954, 17.2564 ], [ -94.9096, 17.2428 ], [ -94.9053, 17.2369 ], [ -94.9112, 17.2137 ], [ -94.923, 17.2041 ], [ -94.9228, 17.1938 ], [ -93.8674, 17.137 ], [ -94.1392, 16.4618 ], [ -94.0507, 16.3297 ], [ -94.033, 16.2759 ], [ -94.0435, 16.2557 ], [ -94.0351, 16.2483 ], [ -94.0352, 16.2396 ], [ -94.0485, 16.2162 ], [ -94.1096, 16.1791 ], [ -94.1028, 16.1425 ], [ -94.036, 16.0221 ], [ -94.0002, 16.0031 ], [ -94.2024, 16.0968 ], [ -94.4274, 16.1698 ], [ -94.54, 16.1919 ], [ -94.6841, 16.2085 ], [ -94.8644, 16.2141 ], [ -95.0627, 16.184 ], [ -95.1423, 16.1887 ], [ -95.1572, 16.1793 ], [ -95.1517, 16.1679 ], [ -95.1923, 16.1674 ], [ -95.198, 16.1503 ], [ -95.2026, 16.1457 ], [ -95.1983, 16.1599 ], [ -95.2089, 16.1599 ], [ -95.2096, 16.1545 ], [ -95.2122, 16.1594 ], [ -95.2133, 16.1529 ], [ -95.2149, 16.1586 ], [ -95.2332, 16.1583 ], [ -95.248, 16.1472 ], [ -95.2475, 16.1333 ], [ -95.2669, 16.1303 ], [ -95.281, 16.1205 ], [ -95.2785, 16.1109 ], [ -95.2754, 16.108 ], [ -95.2757, 16.1074 ], [ -95.34, 16.0873 ], [ -95.3562, 16.0771 ], [ -95.378, 16.0463 ], [ -95.3693, 16.0199 ], [ -95.4241, 15.9997 ], [ -95.4356, 15.9761 ], [ -95.4858, 15.9758 ], [ -95.4977, 15.9658 ] ] ] ] } },
{ "type": "Feature", "properties": { "region": "Mixteca", "n_municipios": 165 }, "geometry": { "type": "Polygon", "coordinates": [ [ [ -98.068, 16.6129 ], [ -98.0759, 16.6235 ], [ -98.0938, 16.6247 ], [ -98.1262, 16.6432 ], [ -98.1435, 16.6412 ], [ -98.1448, 16.6494 ], [ -98.1548, 16.6564 ], [ -98.1515, 16.6746 ], [ -98.1311, 16.6794 ], [ -98.1085, 16.7416 ], [ -98.1352, 16.7584 ], [ -98.1287, 16.7612 ], [ -98.1205, 16.7547 ], [ -98.1082, 16.761 ], [ -98.1001, 16.7993 ], [ -98.0864, 16.8163 ], [ -98.084, 16.8409 ], [ -98.0746, 16.8545 ], [ -98.0726, 16.8754 ], [ -98.0803, 16.882 ], [ -98.0871, 16.914 ], [ -98.1005, 16.9407 ], [ -98.1075, 16.942 ], [ -98.1065, 16.9567 ], [ -98.1113, 16.9589 ], [ -98.0971, 16.9689 ], [ -98.0752, 17.0072 ], [ -98.0575, 17.0238 ], [ -98.0352, 17.0211 ], [ -98.0302, 17.0158 ], [ -98.0073, 17.0401 ], [ -98.0809, 17.0666 ], [ -98.118, 17.0955 ], [ -98.15, 17.1024 ], [ -98.1534, 17.1104 ], [ -98.2226, 17.1221 ], [ -98.2199, 17.145 ], [ -98.225, 17.1523 ], [ -98.2186, 17.1603 ], [ -98.2177, 17.1869 ], [ -98.2051, 17.191 ], [ -98.2004, 17.2038 ], [ -98.2031, 17.2163 ], [ -98.2262, 17.2419 ], [ -98.2443, 17.2515 ], [ -98.2648, 17.2464 ], [ -98.2772, 17.2501 ], [ -98.2885, 17.2382 ], [ -98.3021, 17.2463 ], [ -98.3235, 17.2759 ], [ -98.3048, 17.3275 ], [ -98.2874, 17.329 ], [ -98.3049, 17.3943 ], [ -98.3359, 17.4563 ], [ -98.329, 17.4787 ], [ -98.3119, 17.4775 ], [ -98.3203, 17.5069 ], [ -98.3308, 17.5118 ], [ -98.3295, 17.533 ], [ -98.3412, 17.5419 ], [ -98.3453, 17.5626 ], [ -98.3535, 17.5649 ], [ -98.3546, 17.579 ], [ -98.3647, 17.5826 ], [ -98.377, 17.6053 ], [ -98.4102, 17.5998 ], [ -98.4331, 17.623 ], [ -98.4505, 17.6333 ], [ -98.461, 17.6304 ], [ -98.4707, 17.6781 ], [ -98.4862, 17.681 ], [ -98.4867, 17.7337 ], [ -98.4963, 17.7688 ], [ -98.425, 17.8396 ], [ -98.4249, 17.866 ], [ -98.3988, 17.8609 ], [ -98.3826, 17.8837 ], [ -98.3629, 17.8816 ], [ -98.3491, 17.8932 ], [ -98.3288, 17.8789 ], [ -98.3202, 17.8879 ], [ -98.3021, 17.8931 ], [ -98.3008, 17.9079 ], [ -98.2904, 17.9146 ], [ -98.2823, 17.9352 ], [ -98.2733, 17.9224 ], [ -98.2627, 17.9277 ], [ -98.2612, 17.9223 ], [ -98.2702, 17.9156 ], [ -98.2585, 17.9033 ], [ -98.255, 17.8838 ], [ -98.2465, 17.8784 ], [ -98.2097, 17.8798 ], [ -98.2028, 17.8924 ], [ -98.1769, 17.8974 ], [ -98.1651, 17.9178 ], [ -98.1725, 17.9254 ], [ -98.1696, 17.9528 ], [ -98.1503, 17.9708 ], [ -98.1299, 17.978 ], [ -98.1308, 17.988 ], [ -98.113, 17.9784 ], [ -98.095, 17.9853 ], [ -98.0752, 17.9806 ], [ -98.0641, 17.9856 ], [ -98.0476, 17.9811 ], [ -98.0467, 17.9762 ], [ -98.0298, 17.9918 ], [ -97.9996, 17.9755 ], [ -97.9865, 17.9786 ], [ -97.9794, 17.9644 ], [ -97.9676, 17.9707 ], [ -97.9374, 17.9679 ], [ -97.935, 17.961 ], [ -97.9488, 17.9482 ], [ -97.938, 17.9407 ], [ -97.9363, 17.9172 ], [ -97.9208, 17.9173 ], [ -97.9031, 17.9092 ], [ -97.8721, 17.9175 ], [ -97.8324, 17.9085 ], [ -97.8308, 17.9137 ], [ -97.8193, 17.9147 ], [ -97.8128, 17.9465 ], [ -97.8034, 17.9605 ], [ -97.7896, 17.9618 ], [ -97.7727, 17.9706 ], [ -97.774, 17.977 ], [ -97.7679, 17.9767 ], [ -97.7664, 18.0059 ], [ -97.7285, 18.0122 ], [ -97.7187, 18.0038 ], [ -97.6997, 18.0016 ], [ -97.6988, 18.0217 ], [ -97.7299, 18.0373 ], [ -97.7491, 18.0606 ], [ -97.7717, 18.0684 ], [ -97.7985, 18.0358 ], [ -97.7909, 18.0042 ], [ -97.8166, 17.9935 ], [ -97.8263, 17.9727 ], [ -97.8426, 17.9961 ], [ -97.8348, 18.0498 ], [ -97.8107, 18.0677 ], [ -97.8495, 18.0837 ], [ -97.8672, 18.1149 ], [ -97.8675, 18.1446 ], [ -97.8536, 18.1679 ], [ -97.8395, 18.1712 ], [ -97.8499, 18.1895 ], [ -97.8592, 18.1923 ], [ -97.8441, 18.2162 ], [ -97.823, 18.2234 ], [ -97.8276, 18.2369 ], [ -97.7973, 18.2832 ], [ -97.7832, 18.2863 ], [ -97.7497, 18.2758 ], [ -97.7213, 18.276 ], [ -97.6997, 18.2882 ], [ -97.6547, 18.2931 ], [ -97.644, 18.2794 ], [ -97.634, 18.2001 ], [ -97.6532, 18.1753 ], [ -97.6164, 18.1527 ], [ -97.6093, 18.1537 ], [ -97.6044, 18.1374 ], [ -97.6082, 18.131 ], [ -97.5696, 18.1034 ], [ -97.5638, 18.0626 ], [ -97.5576, 18.0469 ], [ -97.5439, 18.0334 ], [ -97.534, 18.0463 ], [ -97.5224, 18.0446 ], [ -97.5059, 18.0278 ], [ -97.4669, 18.027 ], [ -97.4475, 18.0535 ], [ -97.4481, 18.066 ], [ -97.4445, 18.064 ], [ -97.4414, 18.0719 ], [ -97.4256, 18.0693 ], [ -97.4113, 18.1023 ], [ -97.4032, 18.1075 ], [ -97.3768, 18.0944 ], [ -97.3745, 18.1013 ], [ -97.3666, 18.1009 ], [ -97.3549, 18.1218 ], [ -97.3397, 18.1302 ], [ -97.3321, 18.1455 ], [ -97.3184, 18.1458 ], [ -97.3033, 18.1591 ], [ -97.2663, 18.1585 ], [ -97.2251, 18.1743 ], [ -97.2143, 18.1637 ], [ -97.2134, 18.1066 ], [ -97.1923, 18.0353 ], [ -97.1941, 17.9749 ], [ -97.2454, 17.9153 ], [ -97.2461, 17.8154 ], [ -97.1987, 17.7966 ], [ -97.1952, 17.7843 ], [ -97.1539, 17.8043 ], [ -97.1362, 17.7998 ], [ -97.1362, 17.7895 ], [ -97.1198, 17.7847 ], [ -97.1147, 17.779 ], [ -97.1011, 17.6948 ], [ -97.0878, 17.6783 ], [ -97.0799, 17.6858 ], [ -97.056, 17.6716 ], [ -97.0446, 17.6568 ], [ -97.036, 17.5683 ], [ -97.04, 17.558 ], [ -97.0348, 17.5556 ], [ -97.0414, 17.5348 ], [ -97.0217, 17.5151 ], [ -96.9954, 17.5064 ], [ -96.9936, 17.5224 ], [ -97.0164, 17.5408 ], [ -97.0116, 17.5516 ], [ -96.9933, 17.546 ], [ -96.9874, 17.556 ], [ -96.9777, 17.5509 ], [ -96.9808, 17.5457 ], [ -96.9585, 17.5457 ], [ -96.9559, 17.5366 ], [ -96.976, 17.5088 ], [ -96.9907, 17.5008 ], [ -97.0175, 17.498 ], [ -97.019, 17.4802 ], [ -97.0053, 17.4839 ], [ -96.9987, 17.444 ], [ -97.021, 17.4494 ], [ -97.021, 17.4412 ], [ -97.0438, 17.4201 ], [ -97.0906, 17.4198 ], [ -97.1054, 17.4318 ], [ -97.1443, 17.4014 ], [ -97.1271, 17.3891 ], [ -97.083, 17.3769 ], [ -97.0944, 17.3514 ], [ -97.0921, 17.3457 ], [ -97.1052, 17.3273 ], [ -97.1057, 17.3131 ], [ -97.0767, 17.2795 ], [ -97.0436, 17.2532 ], [ -97.0478, 17.2489 ], [ -97.0319, 17.2316 ], [ -96.9839, 17.1955 ], [ -96.9866, 17.1451 ], [ -97.0009, 17.1337 ], [ -97.0073, 17.1196 ], [ -97.0288, 17.1175 ], [ -97.0352, 17.0929 ], [ -97.0548, 17.0833 ], [ -97.0526, 17.0711 ], [ -97.0574, 17.0647 ], [ -97.0729, 17.06 ], [ -97.0725, 17.0757 ], [ -97.0809, 17.0763 ], [ -97.119, 17.0591 ], [ -97.1561, 17.0235 ], [ -97.145, 16.9856 ], [ -97.1966, 16.9767 ], [ -97.1956, 16.9603 ], [ -97.2088, 16.9187 ], [ -97.3007, 16.9518 ], [ -97.3485, 16.9425 ], [ -97.437, 16.9409 ], [ -97.4388, 16.9353 ], [ -97.4185, 16.9277 ], [ -97.4147, 16.914 ], [ -97.4077, 16.9153 ], [ -97.4061, 16.9104 ], [ -97.4168, 16.8932 ], [ -97.4284, 16.8884 ], [ -97.4106, 16.8762 ], [ -97.408, 16.8679 ], [ -97.3834, 16.8641 ], [ -97.3674, 16.8317 ], [ -97.3692, 16.8224 ], [ -97.38, 16.8144 ], [ -97.4517, 16.8121 ], [ -97.4896, 16.803 ], [ -97.5193, 16.7807 ], [ -97.5199, 16.7684 ], [ -97.5295, 16.7624 ], [ -97.5277, 16.7518 ], [ -97.5422, 16.7431 ], [ -97.5568, 16.7209 ], [ -97.5554, 16.7016 ], [ -97.5644, 16.6864 ], [ -97.5539, 16.6748 ], [ -97.5632, 16.664 ], [ -97.5992, 16.6504 ], [ -97.6103, 16.6389 ], [ -97.6075, 16.6307 ], [ -97.6221, 16.6098 ], [ -97.6333, 16.6064 ], [ -97.6599, 16.6175 ], [ -97.703, 16.6222 ], [ -97.7227, 16.6141 ], [ -97.7447, 16.6237 ], [ -97.7923, 16.6226 ], [ -97.779, 16.5931 ], [ -97.7984, 16.6007 ], [ -97.8043, 16.5885 ], [ -97.8269, 16.5968 ], [ -97.8419, 16.5933 ], [ -97.8396, 16.578 ], [ -97.8594, 16.5657 ], [ -97.8693, 16.5771 ], [ -97.9347, 16.5646 ], [ -97.9543, 16.5697 ], [ -97.9594, 16.552 ], [ -97.9697, 16.5469 ], [ -97.9775, 16.5522 ], [ -97.9726, 16.5566 ], [ -97.9796, 16.56 ], [ -97.9748, 16.5704 ], [ -97.9796, 16.5739 ], [ -97.9905, 16.5686 ], [ -98.0845, 16.567 ], [ -98.0946, 16.5879 ], [ -98.0703, 16.5932 ], [ -98.0736, 16.5962 ], [ -98.0662, 16.6025 ], [ -98.0733, 16.6093 ], [ -98.068, 16.6129 ] ] ] } },
{ "type": "Feature", "properties": { "region": "Papaloapan", "n_municipios": 21 }, "geometry": { "type": "Polygon", "coordinates": [ [ [ -96.1179, 17.6682 ], [ -96.136, 17.6614 ], [ -96.1654, 17.6645 ], [ -96.2361, 17.65 ], [ -96.2503, 17.6503 ], [ -96.2524, 17.6564 ], [ -96.2867, 17.6573 ], [ -96.292, 17.6619 ], [ -96.2866, 17.6741 ], [ -96.294, 17.6742 ], [ -96.2941, 17.6802 ], [ -96.2674, 17.7113 ], [ -96.2823, 17.7267 ], [ -96.3043, 17.7194 ], [ -96.3163, 17.6976 ], [ -96.3657, 17.67 ], [ -96.3686, 17.6733 ], [ -96.3538, 17.6921 ], [ -96.3831, 17.6981 ], [ -96.4054, 17.6887 ], [ -96.409, 17.6788 ], [ -96.4215, 17.6738 ], [ -96.45, 17.6762 ], [ -96.4822, 17.6656 ], [ -96.4871, 17.655 ], [ -96.5039, 17.6519 ], [ -96.5105, 17.6418 ], [ -96.566, 17.6665 ], [ -96.5758, 17.6905 ], [ -96.6111, 17.7041 ], [ -96.5977, 17.734 ], [ -96.6027, 17.7331 ], [ -96.595, 17.7671 ], [ -96.5829, 17.7713 ], [ -96.5624, 17.7943 ], [ -96.5626, 17.8058 ], [ -96.578, 17.8356 ], [ -96.5468, 17.8696 ], [ -96.5612, 17.8931 ], [ -96.5654, 17.9233 ], [ -96.5566, 17.9441 ], [ -96.5193, 17.9429 ], [ -96.5112, 17.9519 ], [ -96.49, 17.9979 ], [ -96.4889, 18.0141 ], [ -96.5106, 18.0254 ], [ -96.5246, 18.0226 ], [ -96.5492, 18.0382 ], [ -96.602, 18.0287 ], [ -96.6088, 18.0316 ], [ -96.6133, 18.0449 ], [ -96.6233, 18.0412 ], [ -96.6325, 18.0509 ], [ -96.648, 18.054 ], [ -96.6394, 18.0649 ], [ -96.6286, 18.064 ], [ -96.6215, 18.0753 ], [ -96.6037, 18.0702 ], [ -96.592, 18.0831 ], [ -96.5768, 18.0817 ], [ -96.5575, 18.113 ], [ -96.5835, 18.1087 ], [ -96.5954, 18.1177 ], [ -96.5958, 18.1259 ], [ -96.5794, 18.1402 ], [ -96.5975, 18.1642 ], [ -96.5821, 18.1676 ], [ -96.5969, 18.1804 ], [ -96.6251, 18.1925 ], [ -96.6207, 18.1935 ], [ -96.6238, 18.204 ], [ -96.6163, 18.2024 ], [ -96.6133, 18.2088 ], [ -96.6237, 18.2198 ], [ -96.6258, 18.2103 ], [ -96.6337, 18.211 ], [ -96.6343, 18.2199 ], [ -96.661, 18.2292 ], [ -96.6673, 18.2432 ], [ -96.679, 18.2467 ], [ -96.6898, 18.2772 ], [ -96.6805, 18.2886 ], [ -96.6541, 18.2832 ], [ -96.631, 18.3001 ], [ -96.6247, 18.2778 ], [ -96.6121, 18.2738 ], [ -96.6002, 18.2849 ], [ -96.6038, 18.2938 ], [ -96.5947, 18.3029 ], [ -96.6131, 18.3132 ], [ -96.6274, 18.3123 ], [ -96.6269, 18.3293 ], [ -96.6361, 18.3285 ], [ -96.6416, 18.3194 ], [ -96.6462, 18.3257 ], [ -96.6384, 18.3295 ], [ -96.6422, 18.3331 ], [ -96.6354, 18.3328 ], [ -96.6452, 18.3339 ], [ -96.6431, 18.3374 ], [ -96.6466, 18.3344 ], [ -96.6451, 18.3305 ], [ -96.654, 18.3274 ], [ -96.6461, 18.3365 ], [ -96.6513, 18.3347 ], [ -96.6523, 18.338 ], [ -96.6436, 18.3395 ], [ -96.6552, 18.3434 ], [ -96.6519, 18.3411 ], [ -96.6581, 18.3423 ], [ -96.6541, 18.34 ], [ -96.6558, 18.3349 ], [ -96.6661, 18.3414 ], [ -96.66, 18.3488 ], [ -96.6694, 18.35 ], [ -96.6732, 18.3569 ], [ -96.6803, 18.3474 ], [ -96.702, 18.3531 ], [ -96.7024, 18.3619 ], [ -96.6926, 18.3662 ], [ -96.6918, 18.3808 ], [ -96.6816, 18.3756 ], [ -96.6746, 18.3814 ], [ -96.6814, 18.3857 ], [ -96.681, 18.4122 ], [ -96.7059, 18.4229 ], [ -96.7097, 18.43 ], [ -96.705, 18.432 ], [ -96.709, 18.4324 ], [ -96.7053, 18.4567 ], [ -96.6929, 18.4575 ], [ -96.6825, 18.4751 ], [ -96.6857, 18.4896 ], [ -96.6911, 18.4898 ], [ -96.6814, 18.5025 ], [ -96.688, 18.5126 ], [ -96.7029, 18.5103 ], [ -96.7062, 18.5263 ], [ -96.7141, 18.5276 ], [ -96.719, 18.5221 ], [ -96.7269, 18.5298 ], [ -96.7118, 18.5481 ], [ -96.7242, 18.559 ], [ -96.7156, 18.5732 ], [ -96.6996, 18.5533 ], [ -96.6909, 18.568 ], [ -96.7021, 18.5812 ], [ -96.6888, 18.5812 ], [ -96.6938, 18.5912 ], [ -96.679, 18.6078 ], [ -96.6725, 18.6076 ], [ -96.675, 18.6243 ], [ -96.6887, 18.6388 ], [ -96.6811, 18.6479 ], [ -96.683, 18.6697 ], [ -96.6458, 18.6404 ], [ -96.6317, 18.6357 ], [ -96.6167, 18.6191 ], [ -96.5954, 18.6115 ], [ -96.5609, 18.5877 ], [ -96.5373, 18.584 ], [ -96.5255, 18.5878 ], [ -96.5175, 18.5816 ], [ -96.4997, 18.5895 ], [ -96.4733, 18.5733 ], [ -96.4573, 18.5704 ], [ -96.4511, 18.5571 ], [ -96.455, 18.5493 ], [ -96.4208, 18.5105 ], [ -96.4235, 18.5018 ], [ -96.4166, 18.4993 ], [ -96.4112, 18.4769 ], [ -96.4182, 18.4761 ], [ -96.418, 18.4705 ], [ -96.4124, 18.4648 ], [ -96.4046, 18.4678 ], [ -96.403, 18.4399 ], [ -96.3893, 18.4405 ], [ -96.3892, 18.4284 ], [ -96.3762, 18.4246 ], [ -96.3617, 18.4071 ], [ -96.3526, 18.4102 ], [ -96.3446, 18.3985 ], [ -96.349, 18.3884 ], [ -96.3453, 18.3797 ], [ -96.3393, 18.3756 ], [ -96.3311, 18.3792 ], [ -96.3351, 18.3725 ], [ -96.3173, 18.3645 ], [ -96.315, 18.3314 ], [ -96.3056, 18.329 ], [ -96.3099, 18.3224 ], [ -96.2869, 18.3113 ], [ -96.2855, 18.3017 ], [ -96.2708, 18.2978 ], [ -96.2774, 18.294 ], [ -96.2739, 18.2859 ], [ -96.2786, 18.2838 ], [ -96.2692, 18.274 ], [ -96.2773, 18.2714 ], [ -96.276, 18.2658 ], [ -96.2831, 18.2689 ], [ -96.2882, 18.2598 ], [ -96.2668, 18.2457 ], [ -96.268, 18.2245 ], [ -96.231, 18.1897 ], [ -96.2175, 18.162 ], [ -96.2031, 18.1749 ], [ -96.1707, 18.1864 ], [ -96.1702, 18.1698 ], [ -96.1872, 18.1667 ], [ -96.1828, 18.1578 ], [ -96.1883, 18.1513 ], [ -96.1797, 18.1406 ], [ -96.1542, 18.1318 ], [ -96.1436, 18.1401 ], [ -96.1367, 18.134 ], [ -96.1241, 18.1404 ], [ -96.123, 18.1542 ], [ -96.1172, 18.1552 ], [ -96.1143, 18.1641 ], [ -96.0992, 18.1668 ], [ -96.0842, 18.1625 ], [ -96.0664, 18.1316 ], [ -96.057, 18.134 ], [ -96.0514, 18.1267 ], [ -96.0469, 18.1366 ], [ -96.0257, 18.1335 ], [ -95.9911, 18.1519 ], [ -95.9815, 18.143 ], [ -95.9535, 18.1599 ], [ -95.9373, 18.1566 ], [ -95.9333, 18.1417 ], [ -95.9257, 18.1464 ], [ -95.9222, 18.1411 ], [ -95.9221, 18.1508 ], [ -95.9146, 18.1522 ], [ -95.9135, 18.1386 ], [ -95.9072, 18.1356 ], [ -95.8332, 18.129 ], [ -95.7999, 17.95 ], [ -95.8502, 17.8445 ], [ -95.8588, 17.8448 ], [ -95.8493, 17.8258 ], [ -95.8558, 17.8056 ], [ -95.869, 17.7966 ], [ -95.8664, 17.7744 ], [ -95.8848, 17.7718 ], [ -95.8929, 17.7651 ], [ -95.9029, 17.7341 ], [ -95.8926, 17.7207 ], [ -95.8728, 17.7274 ], [ -95.8734, 17.7171 ], [ -95.894, 17.7123 ], [ -95.8953, 17.7045 ], [ -95.871, 17.7022 ], [ -95.8675, 17.6848 ], [ -95.844, 17.6731 ], [ -95.8306, 17.6526 ], [ -95.808, 17.6468 ], [ -95.8096, 17.6382 ], [ -95.8033, 17.6294 ], [ -95.7811, 17.6389 ], [ -95.7825, 17.6258 ], [ -95.7727, 17.6215 ], [ -95.7737, 17.6059 ], [ -95.7804, 17.6111 ], [ -95.7891, 17.6109 ], [ -95.7947, 17.6035 ], [ -95.8035, 17.6071 ], [ -95.8075, 17.5918 ], [ -95.7919, 17.5864 ], [ -95.793, 17.6014 ], [ -95.7818, 17.603 ], [ -95.7715, 17.5997 ], [ -95.7716, 17.5887 ], [ -95.7449, 17.586 ], [ -95.7338, 17.5755 ], [ -95.7269, 17.578 ], [ -95.724, 17.5573 ], [ -95.7281, 17.552 ], [ -95.7205, 17.5435 ], [ -95.7251, 17.5362 ], [ -95.7066, 17.534 ], [ -95.7021, 17.5185 ], [ -95.691, 17.5249 ], [ -95.6852, 17.5375 ], [ -95.674, 17.5338 ], [ -95.6485, 17.5399 ], [ -95.6536, 17.5605 ], [ -95.645, 17.5467 ], [ -95.6271, 17.548 ], [ -95.62, 17.541 ], [ -95.6071, 17.5398 ], [ -95.6051, 17.549 ], [ -95.5988, 17.5346 ], [ -95.5853, 17.535 ], [ -95.5688, 17.5512 ], [ -95.5594, 17.547 ], [ -95.5555, 17.5586 ], [ -95.5496, 17.5532 ], [ -95.5397, 17.5606 ], [ -95.5315, 17.5562 ], [ -95.5251, 17.5621 ], [ -95.5311, 17.5706 ], [ -95.5248, 17.576 ], [ -95.5174, 17.5696 ], [ -95.5213, 17.577 ], [ -95.514, 17.5855 ], [ -95.5037, 17.5838 ], [ -95.5063, 17.5908 ], [ -95.4842, 17.6019 ], [ -95.4793, 17.5878 ], [ -95.463, 17.5964 ], [ -95.4731, 17.6091 ], [ -95.4545, 17.6111 ], [ -95.4561, 17.6231 ], [ -95.4461, 17.6218 ], [ -95.4268, 17.6366 ], [ -95.4255, 17.6475 ], [ -95.4185, 17.644 ], [ -95.413, 17.6519 ], [ -95.4072, 17.6433 ], [ -95.3868, 17.6639 ], [ -95.3679, 17.6737 ], [ -95.3517, 17.6718 ], [ -95.3516, 17.6797 ], [ -95.3438, 17.6837 ], [ -95.3401, 17.6744 ], [ -95.3338, 17.6752 ], [ -95.3166, 17.6976 ], [ -95.3066, 17.6972 ], [ -95.31, 17.7086 ], [ -95.3026, 17.711 ], [ -95.2978, 17.7221 ], [ -95.2922, 17.7124 ], [ -95.28, 17.7157 ], [ -95.2792, 17.7219 ], [ -95.2656, 17.7175 ], [ -95.269, 17.7409 ], [ -95.2587, 17.7285 ], [ -95.2389, 17.7393 ], [ -95.1903, 17.692 ], [ -95.1824, 17.6911 ], [ -95.1881, 17.6507 ], [ -95.1951, 17.6549 ], [ -95.2012, 17.6474 ], [ -95.2071, 17.6543 ], [ -95.2184, 17.6393 ], [ -95.2419, 17.635 ], [ -95.2482, 17.646 ], [ -95.259, 17.629 ], [ -95.2484, 17.6256 ], [ -95.2555, 17.6216 ], [ -95.2713, 17.6247 ], [ -95.2702, 17.6157 ], [ -95.2788, 17.6132 ], [ -95.2648, 17.6016 ], [ -95.253, 17.6078 ], [ -95.2536, 17.602 ], [ -95.1221, 17.432 ], [ -95.1438, 17.4289 ], [ -95.1389, 17.412 ], [ -95.1526, 17.4113 ], [ -95.1527, 17.4276 ], [ -95.1825, 17.4232 ], [ -95.1868, 17.3722 ], [ -95.1977, 17.3795 ], [ -95.2057, 17.3757 ], [ -95.2166, 17.3796 ], [ -95.2183, 17.3419 ], [ -95.2279, 17.3532 ], [ -95.2367, 17.3463 ], [ -95.2598, 17.3455 ], [ -95.2607, 17.3723 ], [ -95.2672, 17.3625 ], [ -95.2716, 17.368 ], [ -95.2832, 17.3633 ], [ -95.2848, 17.3515 ], [ -95.295, 17.347 ], [ -95.2997, 17.3478 ], [ -95.3014, 17.3647 ], [ -95.3183, 17.3552 ], [ -95.3236, 17.3592 ], [ -95.3205, 17.3645 ], [ -95.3296, 17.3617 ], [ -95.3298, 17.372 ], [ -95.3522, 17.3542 ], [ -95.3677, 17.3588 ], [ -95.3767, 17.3496 ], [ -95.4097, 17.3514 ], [ -95.4067, 17.3023 ], [ -95.3866, 17.278 ], [ -95.3935, 17.2647 ], [ -95.4077, 17.2679 ], [ -95.4033, 17.2621 ], [ -95.409, 17.2611 ], [ -95.4176, 17.2699 ], [ -95.4234, 17.2607 ], [ -95.4356, 17.2622 ], [ -95.4389, 17.2561 ], [ -95.4426, 17.2677 ], [ -95.4616, 17.264 ], [ -95.4649, 17.2681 ], [ -95.4795, 17.2611 ], [ -95.5009, 17.2653 ], [ -95.5415, 17.2387 ], [ -95.5278, 17.2748 ], [ -95.536, 17.2759 ], [ -95.5422, 17.2861 ], [ -95.5323, 17.292 ], [ -95.5443, 17.2948 ], [ -95.5696, 17.2742 ], [ -95.5656, 17.2595 ], [ -95.5567, 17.2564 ], [ -95.5613, 17.2263 ], [ -95.6016, 17.2101 ], [ -95.6015, 17.168 ], [ -95.633, 17.1584 ], [ -95.6475, 17.1037 ], [ -95.6649, 17.0619 ], [ -95.6715, 17.0577 ], [ -95.6689, 17.0464 ], [ -95.6832, 17.0582 ], [ -95.6927, 17.0233 ], [ -95.7096, 17.0329 ], [ -95.7182, 17.0278 ], [ -95.7374, 17.0346 ], [ -95.747, 17.0324 ], [ -95.7874, 17.0602 ], [ -95.7786, 17.0734 ], [ -95.7852, 17.0753 ], [ -95.7824, 17.0801 ], [ -95.8234, 17.1293 ], [ -95.8035, 17.1548 ], [ -95.8156, 17.1735 ], [ -95.8113, 17.1865 ], [ -95.8238, 17.1855 ], [ -95.8421, 17.2041 ], [ -95.8198, 17.208 ], [ -95.7968, 17.2043 ], [ -95.7907, 17.2149 ], [ -95.7798, 17.2191 ], [ -95.8007, 17.2301 ], [ -95.8245, 17.2562 ], [ -95.8486, 17.2637 ], [ -95.8548, 17.2603 ], [ -95.8814, 17.2819 ], [ -95.8961, 17.2791 ], [ -95.8996, 17.273 ], [ -95.9246, 17.2725 ], [ -95.9413, 17.2785 ], [ -95.9498, 17.2912 ], [ -95.9696, 17.2866 ], [ -95.9727, 17.2942 ], [ -95.9677, 17.3019 ], [ -95.9781, 17.3129 ], [ -95.9866, 17.31 ], [ -95.9964, 17.3167 ], [ -95.9895, 17.3199 ], [ -95.9934, 17.3331 ], [ -96.0096, 17.3419 ], [ -96.0284, 17.342 ], [ -96.0316, 17.3472 ], [ -96.0384, 17.3437 ], [ -96.0775, 17.3709 ], [ -96.0771, 17.3825 ], [ -96.0863, 17.3957 ], [ -96.0922, 17.3924 ], [ -96.0979, 17.3965 ], [ -96.1008, 17.4119 ], [ -96.1263, 17.4421 ], [ -96.1144, 17.4471 ], [ -96.1007, 17.4665 ], [ -96.1009, 17.4843 ], [ -96.0885, 17.5008 ], [ -96.0974, 17.5237 ], [ -96.0856, 17.528 ], [ -96.0893, 17.538 ], [ -96.0812, 17.5436 ], [ -96.087, 17.5497 ], [ -96.0763, 17.5653 ], [ -96.0717, 17.5864 ], [ -96.0993, 17.6099 ], [ -96.1275, 17.6234 ], [ -96.0937, 17.6259 ], [ -96.0868, 17.631 ], [ -96.0948, 17.6448 ], [ -96.1189, 17.6564 ], [ -96.1179, 17.6682 ] ] ] } },
{ "type": "Feature", "properties": { "region": "Sierra Juárez", "n_municipios": 66 }, "geometry": { "type": "Polygon", "coordinates": [ [ [ -96.4647, 17.1061 ], [ -96.4907, 17.1132 ], [ -96.5067, 17.1027 ], [ -96.538, 17.1315 ], [ -96.5978, 17.1174 ], [ -96.6074, 17.1194 ], [ -96.6225, 17.1449 ], [ -96.6363, 17.1355 ], [ -96.6505, 17.1458 ], [ -96.6533, 17.1737 ], [ -96.6849, 17.2375 ], [ -96.695, 17.2448 ], [ -96.7054, 17.2368 ], [ -96.7272, 17.2496 ], [ -96.7474, 17.2835 ], [ -96.7137, 17.3043 ], [ -96.7338, 17.3551 ], [ -96.7236, 17.3608 ], [ -96.7644, 17.3821 ], [ -96.7446, 17.4696 ], [ -96.7522, 17.4751 ], [ -96.7722, 17.4756 ], [ -96.7185, 17.495 ], [ -96.6967, 17.5313 ], [ -96.651, 17.5602 ], [ -96.6591, 17.5714 ], [ -96.6477, 17.5949 ], [ -96.6298, 17.5973 ], [ -96.6301, 17.6037 ], [ -96.6407, 17.6024 ], [ -96.6401, 17.6104 ], [ -96.6491, 17.6095 ], [ -96.6469, 17.6215 ], [ -96.6533, 17.6191 ], [ -96.6598, 17.6233 ], [ -96.6609, 17.6342 ], [ -96.6664, 17.6313 ], [ -96.6727, 17.6363 ], [ -96.6735, 17.6424 ], [ -96.6684, 17.6412 ], [ -96.6653, 17.6462 ], [ -96.6803, 17.6494 ], [ -96.6808, 17.6589 ], [ -96.6895, 17.6534 ], [ -96.6896, 17.6656 ], [ -96.7044, 17.6654 ], [ -96.6966, 17.6784 ], [ -96.694, 17.7073 ], [ -96.6722, 17.7088 ], [ -96.6563, 17.6958 ], [ -96.6425, 17.7013 ], [ -96.6332, 17.7156 ], [ -96.656, 17.7189 ], [ -96.6603, 17.7136 ], [ -96.6857, 17.7272 ], [ -96.6831, 17.7379 ], [ -96.6717, 17.7468 ], [ -96.6882, 17.7491 ], [ -96.6797, 17.7547 ], [ -96.6718, 17.7883 ], [ -96.6487, 17.7729 ], [ -96.6623, 17.756 ], [ -96.6371, 17.7648 ], [ -96.6342, 17.7745 ], [ -96.6164, 17.7534 ], [ -96.6158, 17.7402 ], [ -96.5977, 17.734 ], [ -96.6111, 17.7041 ], [ -96.5758, 17.6905 ], [ -96.566, 17.6665 ], [ -96.5161, 17.6423 ], [ -96.5105, 17.6418 ], [ -96.5039, 17.6519 ], [ -96.4871, 17.655 ], [ -96.4822, 17.6656 ], [ -96.45, 17.6762 ], [ -96.4215, 17.6738 ], [ -96.409, 17.6788 ], [ -96.4054, 17.6887 ], [ -96.3831, 17.6981 ], [ -96.3538, 17.6921 ], [ -96.3686, 17.6733 ], [ -96.3657, 17.67 ], [ -96.3163, 17.6976 ], [ -96.3043, 17.7194 ], [ -96.2823, 17.7267 ], [ -96.2674, 17.7113 ], [ -96.2941, 17.6802 ], [ -96.294, 17.6742 ], [ -96.2866, 17.6741 ], [ -96.292, 17.6619 ], [ -96.2867, 17.6573 ], [ -96.2524, 17.6564 ], [ -96.2503, 17.6503 ], [ -96.2361, 17.65 ], [ -96.1654, 17.6645 ], [ -96.136, 17.6614 ], [ -96.1174, 17.6684 ], [ -96.1189, 17.6564 ], [ -96.0948, 17.6448 ], [ -96.0868, 17.631 ], [ -96.0937, 17.6259 ], [ -96.1275, 17.6234 ], [ -96.0993, 17.6099 ], [ -96.0717, 17.5864 ], [ -96.0763, 17.5653 ], [ -96.087, 17.5497 ], [ -96.0812, 17.5436 ], [ -96.0893, 17.538 ], [ -96.0856, 17.528 ], [ -96.0974, 17.5237 ], [ -96.0885, 17.5008 ], [ -96.1009, 17.4843 ], [ -96.1007, 17.4665 ], [ -96.1144, 17.4471 ], [ -96.1263, 17.4444 ], [ -96.1008, 17.4119 ], [ -96.0979, 17.3965 ], [ -96.0922, 17.3924 ], [ -96.0863, 17.3957 ], [ -96.0771, 17.3825 ], [ -96.0775, 17.3709 ], [ -96.0384, 17.3437 ], [ -96.0316, 17.3472 ], [ -96.0284, 17.342 ], [ -96.0096, 17.3419 ], [ -95.9934, 17.3331 ], [ -95.9895, 17.3199 ], [ -95.9964, 17.3167 ], [ -95.9866, 17.31 ], [ -95.9781, 17.3129 ], [ -95.9677, 17.3019 ], [ -95.9727, 17.2942 ], [ -95.9696, 17.2866 ], [ -95.9498, 17.2912 ], [ -95.9413, 17.2785 ], [ -95.9246, 17.2725 ], [ -95.8996, 17.273 ], [ -95.8961, 17.2791 ], [ -95.8814, 17.2819 ], [ -95.8548, 17.2603 ], [ -95.8486, 17.2637 ], [ -95.8245, 17.2562 ], [ -95.8007, 17.2301 ], [ -95.7798, 17.2191 ], [ -95.7907, 17.2149 ], [ -95.7968, 17.2043 ], [ -95.8198, 17.208 ], [ -95.8421, 17.2041 ], [ -95.8238, 17.1855 ], [ -95.8113, 17.1865 ], [ -95.8156, 17.1735 ], [ -95.8035, 17.1548 ], [ -95.8234, 17.1293 ], [ -95.7824, 17.0801 ], [ -95.7852, 17.0753 ], [ -95.7786, 17.0734 ], [ -95.7874, 17.0667 ], [ -95.7872, 17.0598 ], [ -95.747, 17.0324 ], [ -95.6985, 17.0301 ], [ -95.6927, 17.0233 ], [ -95.6965, 17.0093 ], [ -95.6907, 16.9881 ], [ -95.6687, 16.9595 ], [ -95.649, 16.9638 ], [ -95.6483, 16.9815 ], [ -95.6053, 16.9785 ], [ -95.6068, 16.9707 ], [ -95.6407, 16.9446 ], [ -95.6494, 16.9455 ], [ -95.6584, 16.9076 ], [ -95.6944, 16.8729 ], [ -95.717, 16.8896 ], [ -95.7776, 16.8864 ], [ -95.7929, 16.8552 ], [ -95.8373, 16.7997 ], [ -95.8421, 16.7784 ], [ -95.8587, 16.7788 ], [ -95.8815, 16.7646 ], [ -95.8774, 16.7478 ], [ -95.9075, 16.7376 ], [ -95.9128, 16.7679 ], [ -95.9073, 16.7927 ], [ -95.9715, 16.8447 ], [ -95.9765, 16.8596 ], [ -95.9649, 16.8775 ], [ -95.9824, 16.8915 ], [ -96.0171, 16.8799 ], [ -96.0568, 16.8913 ], [ -96.072, 16.8896 ], [ -96.1117, 16.9076 ], [ -96.1247, 16.9192 ], [ -96.1418, 16.9215 ], [ -96.1706, 16.9634 ], [ -96.1861, 16.9709 ], [ -96.2077, 17.0122 ], [ -96.2091, 17.0302 ], [ -96.1984, 17.0515 ], [ -96.1774, 17.0643 ], [ -96.1817, 17.1115 ], [ -96.1886, 17.1158 ], [ -96.1941, 17.1042 ], [ -96.2408, 17.0958 ], [ -96.2577, 17.1021 ], [ -96.3404, 17.1025 ], [ -96.3526, 17.1057 ], [ -96.3605, 17.1335 ], [ -96.3805, 17.1552 ], [ -96.3933, 17.1446 ], [ -96.4087, 17.145 ], [ -96.4439, 17.1252 ], [ -96.4647, 17.1061 ] ] ] } },
{ "type": "Feature", "properties": { "region": "Valles Centrales", "n_municipios": 169 }, "geometry": { "type": "Polygon", "coordinates": [ [ [ -96.7336, 16.1405 ], [ -96.7816, 16.1221 ], [ -96.7922, 16.1023 ], [ -96.8005, 16.0987 ], [ -96.8158, 16.1039 ], [ -96.8162, 16.0986 ], [ -96.821, 16.1012 ], [ -96.825, 16.0943 ], [ -96.8323, 16.0944 ], [ -96.8304, 16.0851 ], [ -96.8368, 16.0755 ], [ -96.8288, 16.0593 ], [ -96.8155, 16.0555 ], [ -96.8321, 16.0375 ], [ -96.8352, 16.0263 ], [ -96.8421, 16.0267 ], [ -96.8469, 16.0109 ], [ -96.8375, 16.0069 ], [ -96.8442, 16.0009 ], [ -96.8344, 16.0008 ], [ -96.8373, 15.9888 ], [ -96.8265, 15.9765 ], [ -96.8317, 15.9668 ], [ -96.8288, 15.9609 ], [ -96.8949, 15.9687 ], [ -96.9087, 16.0129 ], [ -96.9557, 16.0298 ], [ -96.9539, 16.0204 ], [ -97.0033, 16.0359 ], [ -97.0145, 16.0483 ], [ -97.0237, 16.0449 ], [ -97.0184, 16.0631 ], [ -97.0311, 16.0651 ], [ -97.0213, 16.0738 ], [ -97.0304, 16.0859 ], [ -97.034, 16.1184 ], [ -97.065, 16.1398 ], [ -97.0563, 16.1364 ], [ -97.0646, 16.202 ], [ -97.0589, 16.2084 ], [ -97.0287, 16.2126 ], [ -97.0318, 16.19 ], [ -97.0216, 16.1934 ], [ -97.0175, 16.1879 ], [ -97.0149, 16.192 ], [ -97.0215, 16.201 ], [ -97.019, 16.2161 ], [ -97.0271, 16.2324 ], [ -97.062, 16.2453 ], [ -97.0776, 16.2712 ], [ -97.0878, 16.2672 ], [ -97.081, 16.2765 ], [ -97.0887, 16.2777 ], [ -97.0853, 16.2851 ], [ -97.0904, 16.2905 ], [ -97.0817, 16.2938 ], [ -97.0825, 16.3096 ], [ -97.0702, 16.3186 ], [ -97.0782, 16.3658 ], [ -97.0869, 16.347 ], [ -97.0973, 16.3474 ], [ -97.105, 16.3651 ], [ -97.1203, 16.352 ], [ -97.1257, 16.3582 ], [ -97.129, 16.3513 ], [ -97.1335, 16.3558 ], [ -97.1381, 16.3507 ], [ -97.1552, 16.3523 ], [ -97.1658, 16.362 ], [ -97.1651, 16.3512 ], [ -97.1741, 16.3537 ], [ -97.1895, 16.3469 ], [ -97.1873, 16.3562 ], [ -97.2037, 16.3642 ], [ -97.2135, 16.361 ], [ -97.2228, 16.3712 ], [ -97.2339, 16.3742 ], [ -97.2414, 16.3701 ], [ -97.2521, 16.3776 ], [ -97.2585, 16.3699 ], [ -97.2845, 16.3887 ], [ -97.2909, 16.3832 ], [ -97.296, 16.3918 ], [ -97.3016, 16.389 ], [ -97.3059, 16.3943 ], [ -97.3107, 16.3861 ], [ -97.3197, 16.3859 ], [ -97.3102, 16.3973 ], [ -97.3115, 16.402 ], [ -97.3235, 16.3956 ], [ -97.3281, 16.3983 ], [ -97.3224, 16.4167 ], [ -97.3307, 16.4156 ], [ -97.3337, 16.423 ], [ -97.3453, 16.417 ], [ -97.3607, 16.4187 ], [ -97.3791, 16.4426 ], [ -97.3945, 16.3974 ], [ -97.4317, 16.3793 ], [ -97.4362, 16.3733 ], [ -97.4334, 16.3556 ], [ -97.445, 16.339 ], [ -97.4823, 16.362 ], [ -97.5519, 16.3595 ], [ -97.5894, 16.3844 ], [ -97.61, 16.3914 ], [ -97.6104, 16.413 ], [ -97.5934, 16.4189 ], [ -97.6043, 16.4265 ], [ -97.6121, 16.4233 ], [ -97.6191, 16.433 ], [ -97.6173, 16.4389 ], [ -97.6094, 16.4356 ], [ -97.594, 16.4478 ], [ -97.5874, 16.4596 ], [ -97.5725, 16.4677 ], [ -97.5652, 16.4591 ], [ -97.5535, 16.4779 ], [ -97.5413, 16.4791 ], [ -97.5388, 16.5029 ], [ -97.5655, 16.503 ], [ -97.5467, 16.5145 ], [ -97.5698, 16.5562 ], [ -97.5704, 16.5705 ], [ -97.5879, 16.584 ], [ -97.6224, 16.5866 ], [ -97.6195, 16.6008 ], [ -97.6254, 16.6076 ], [ -97.6157, 16.6162 ], [ -97.6158, 16.6246 ], [ -97.6075, 16.6307 ], [ -97.6115, 16.6366 ], [ -97.5992, 16.6504 ], [ -97.5632, 16.664 ], [ -97.5539, 16.6748 ], [ -97.5644, 16.6864 ], [ -97.5554, 16.7016 ], [ -97.5568, 16.7209 ], [ -97.5422, 16.7431 ], [ -97.5277, 16.7518 ], [ -97.5295, 16.7624 ], [ -97.5199, 16.7684 ], [ -97.5193, 16.7807 ], [ -97.4896, 16.803 ], [ -97.4517, 16.8121 ], [ -97.38, 16.8144 ], [ -97.3692, 16.8224 ], [ -97.3674, 16.8317 ], [ -97.3834, 16.8641 ], [ -97.408, 16.8679 ], [ -97.4106, 16.8762 ], [ -97.4284, 16.8884 ], [ -97.4168, 16.8932 ], [ -97.4061, 16.9104 ], [ -97.4077, 16.9153 ], [ -97.4147, 16.914 ], [ -97.4185, 16.9277 ], [ -97.4388, 16.9353 ], [ -97.437, 16.9409 ], [ -97.3485, 16.9425 ], [ -97.3007, 16.9518 ], [ -97.2088, 16.9187 ], [ -97.1956, 16.9603 ], [ -97.1966, 16.9767 ], [ -97.145, 16.9856 ], [ -97.1561, 17.0235 ], [ -97.119, 17.0591 ], [ -97.0809, 17.0763 ], [ -97.0725, 17.0757 ], [ -97.0729, 17.06 ], [ -97.0574, 17.0647 ], [ -97.0526, 17.0711 ], [ -97.0548, 17.0833 ], [ -97.0352, 17.0929 ], [ -97.0288, 17.1175 ], [ -97.0073, 17.1196 ], [ -97.0009, 17.1337 ], [ -96.9866, 17.1451 ], [ -96.9839, 17.1955 ], [ -97.0319, 17.2316 ], [ -97.0478, 17.2489 ], [ -97.0436, 17.2532 ], [ -97.0767, 17.2795 ], [ -97.1057, 17.3131 ], [ -97.1052, 17.3273 ], [ -97.0921, 17.3457 ], [ -97.0944, 17.3514 ], [ -97.083, 17.3769 ], [ -97.1271, 17.3891 ], [ -97.1443, 17.4014 ], [ -97.1054, 17.4318 ], [ -97.0906, 17.4198 ], [ -97.0438, 17.4201 ], [ -97.021, 17.4412 ], [ -97.021, 17.4494 ], [ -96.9987, 17.444 ], [ -97.0053, 17.4839 ], [ -97.019, 17.4802 ], [ -97.0175, 17.498 ], [ -96.9907, 17.5008 ], [ -96.976, 17.5088 ], [ -96.9559, 17.5366 ], [ -96.9453, 17.4846 ], [ -96.9281, 17.4489 ], [ -96.9332, 17.4313 ], [ -96.9302, 17.4131 ], [ -96.8725, 17.4471 ], [ -96.8531, 17.477 ], [ -96.8295, 17.4812 ], [ -96.8239, 17.491 ], [ -96.7959, 17.4895 ], [ -96.7996, 17.4989 ], [ -96.8299, 17.504 ], [ -96.8387, 17.515 ], [ -96.8537, 17.518 ], [ -96.8666, 17.5282 ], [ -96.8806, 17.6221 ], [ -96.8677, 17.6588 ], [ -96.8548, 17.6737 ], [ -96.8362, 17.6779 ], [ -96.8285, 17.6675 ], [ -96.8207, 17.6737 ], [ -96.8156, 17.6631 ], [ -96.8075, 17.6675 ], [ -96.8121, 17.6736 ], [ -96.8032, 17.6802 ], [ -96.7761, 17.682 ], [ -96.7715, 17.6759 ], [ -96.767, 17.6864 ], [ -96.7596, 17.6833 ], [ -96.7517, 17.6917 ], [ -96.7311, 17.6774 ], [ -96.7183, 17.6814 ], [ -96.7038, 17.665 ], [ -96.6896, 17.6656 ], [ -96.6895, 17.6534 ], [ -96.6808, 17.6589 ], [ -96.6803, 17.6494 ], [ -96.6733, 17.6513 ], [ -96.6726, 17.6448 ], [ -96.6648, 17.6452 ], [ -96.6735, 17.6424 ], [ -96.6727, 17.6363 ], [ -96.6664, 17.6313 ], [ -96.6609, 17.6342 ], [ -96.6598, 17.6233 ], [ -96.6533, 17.6191 ], [ -96.6469, 17.6215 ], [ -96.6491, 17.6095 ], [ -96.6401, 17.6104 ], [ -96.6404, 17.6022 ], [ -96.6293, 17.602 ], [ -96.6328, 17.5945 ], [ -96.6448, 17.5962 ], [ -96.6544, 17.586 ], [ -96.6588, 17.5683 ], [ -96.651, 17.5602 ], [ -96.6967, 17.5313 ], [ -96.7185, 17.495 ], [ -96.7722, 17.4756 ], [ -96.7522, 17.4751 ], [ -96.7446, 17.4696 ], [ -96.7644, 17.3821 ], [ -96.7236, 17.3608 ], [ -96.7338, 17.3551 ], [ -96.7137, 17.3043 ], [ -96.7474, 17.2835 ], [ -96.7272, 17.2496 ], [ -96.7054, 17.2368 ], [ -96.695, 17.2448 ], [ -96.6849, 17.2375 ], [ -96.6533, 17.1737 ], [ -96.6505, 17.1458 ], [ -96.6363, 17.1355 ], [ -96.6225, 17.1449 ], [ -96.6074, 17.1194 ], [ -96.5978, 17.1174 ], [ -96.538, 17.1315 ], [ -96.5067, 17.1027 ], [ -96.4907, 17.1132 ], [ -96.4647, 17.1061 ], [ -96.4439, 17.1252 ], [ -96.4087, 17.145 ], [ -96.3933, 17.1446 ], [ -96.3805, 17.1552 ], [ -96.3605, 17.1335 ], [ -96.3526, 17.1057 ], [ -96.3404, 17.1025 ], [ -96.2577, 17.1021 ], [ -96.2408, 17.0958 ], [ -96.1941, 17.1042 ], [ -96.1886, 17.1158 ], [ -96.1801, 17.1094 ], [ -96.1774, 17.0643 ], [ -96.2058, 17.0413 ], [ -96.2077, 17.0122 ], [ -96.1861, 16.9709 ], [ -96.1706, 16.9634 ], [ -96.1535, 16.9319 ], [ -96.1405, 16.9206 ], [ -96.1247, 16.9192 ], [ -96.1117, 16.9076 ], [ -96.072, 16.8896 ], [ -96.0568, 16.8913 ], [ -96.0171, 16.8799 ], [ -95.9818, 16.8913 ], [ -95.9644, 16.8768 ], [ -95.9765, 16.8596 ], [ -95.9715, 16.8447 ], [ -95.9073, 16.7927 ], [ -95.9181, 16.7043 ], [ -95.9305, 16.6785 ], [ -95.9465, 16.6616 ], [ -95.9833, 16.6509 ], [ -96.0104, 16.6524 ], [ -96.0336, 16.6323 ], [ -96.0641, 16.6381 ], [ -96.1264, 16.5806 ], [ -96.1693, 16.5675 ], [ -96.2019, 16.622 ], [ -96.262, 16.6008 ], [ -96.255, 16.5897 ], [ -96.2441, 16.5857 ], [ -96.2558, 16.5519 ], [ -96.2432, 16.5304 ], [ -96.2799, 16.536 ], [ -96.291, 16.4396 ], [ -96.31, 16.4461 ], [ -96.3101, 16.4295 ], [ -96.2928, 16.3954 ], [ -96.305, 16.3759 ], [ -96.31, 16.3272 ], [ -96.2915, 16.2934 ], [ -96.2761, 16.2849 ], [ -96.257, 16.2857 ], [ -96.2425, 16.275 ], [ -96.2232, 16.2797 ], [ -96.1844, 16.2586 ], [ -96.1744, 16.2435 ], [ -96.1782, 16.2234 ], [ -96.1638, 16.2082 ], [ -96.1316, 16.2016 ], [ -96.1026, 16.1626 ], [ -96.0872, 16.1562 ], [ -96.1135, 16.1393 ], [ -96.1194, 16.1142 ], [ -96.1339, 16.0958 ], [ -96.1318, 16.0756 ], [ -96.142, 16.0505 ], [ -96.1371, 16.0379 ], [ -96.1423, 16.0457 ], [ -96.1719, 16.0417 ], [ -96.167, 16.0347 ], [ -96.1512, 16.0346 ], [ -96.1407, 16.0273 ], [ -96.1324, 16.0304 ], [ -96.1182, 16.0075 ], [ -96.1259, 16.0102 ], [ -96.1173, 15.997 ], [ -96.1229, 15.9857 ], [ -96.1372, 15.9876 ], [ -96.1439, 15.9626 ], [ -96.1483, 15.9598 ], [ -96.1791, 15.9721 ], [ -96.1895, 15.9689 ], [ -96.2022, 15.9762 ], [ -96.2055, 15.9744 ], [ -96.1951, 15.9686 ], [ -96.1946, 15.9623 ], [ -96.2067, 15.9494 ], [ -96.2171, 15.9496 ], [ -96.2146, 15.9559 ], [ -96.2292, 15.965 ], [ -96.2415, 15.9637 ], [ -96.2419, 15.9591 ], [ -96.2455, 15.9638 ], [ -96.2448, 15.9534 ], [ -96.2478, 15.9574 ], [ -96.2535, 15.9526 ], [ -96.2549, 15.9615 ], [ -96.2651, 15.9633 ], [ -96.2639, 15.9701 ], [ -96.2808, 15.9705 ], [ -96.2737, 15.9851 ], [ -96.2758, 15.9933 ], [ -96.2899, 15.9943 ], [ -96.2967, 16.0035 ], [ -96.3106, 16.0084 ], [ -96.3101, 16.0126 ], [ -96.2974, 16.0116 ], [ -96.294, 16.0217 ], [ -96.2846, 16.0205 ], [ -96.2921, 16.035 ], [ -96.3335, 16.0247 ], [ -96.3506, 16.0264 ], [ -96.3674, 16.0433 ], [ -96.3802, 16.0456 ], [ -96.3923, 16.0319 ], [ -96.3867, 16.0204 ], [ -96.4022, 16.0086 ], [ -96.3923, 15.9993 ], [ -96.4062, 15.9907 ], [ -96.4114, 15.9663 ], [ -96.4179, 15.9643 ], [ -96.4156, 15.968 ], [ -96.4242, 15.971 ], [ -96.4239, 15.982 ], [ -96.4298, 15.9819 ], [ -96.4382, 15.998 ], [ -96.4271, 16.0157 ], [ -96.4298, 16.0201 ], [ -96.4244, 16.0185 ], [ -96.4167, 16.0318 ], [ -96.4329, 16.0385 ], [ -96.4438, 16.0301 ], [ -96.4508, 16.0427 ], [ -96.4718, 16.0507 ], [ -96.4816, 16.0637 ], [ -96.4794, 16.0706 ], [ -96.4895, 16.0798 ], [ -96.4947, 16.0779 ], [ -96.4894, 16.0705 ], [ -96.4922, 16.0646 ], [ -96.5005, 16.0579 ], [ -96.5027, 16.0635 ], [ -96.5037, 16.0503 ], [ -96.5199, 16.0358 ], [ -96.5191, 16.0244 ], [ -96.5245, 16.0256 ], [ -96.5205, 16.0159 ], [ -96.5397, 16.0133 ], [ -96.5515, 16.0243 ], [ -96.5492, 16.0339 ], [ -96.5399, 16.0396 ], [ -96.5417, 16.0473 ], [ -96.5694, 16.0591 ], [ -96.5734, 16.0633 ], [ -96.5643, 16.0701 ], [ -96.5773, 16.0818 ], [ -96.6216, 16.094 ], [ -96.6503, 16.0858 ], [ -96.7336, 16.1405 ] ] ] } }
]
}
